<?xml version="1.0" encoding="UTF-8"?>
<ndm xmlns:xsi="http://www.w3.org/2001/XMLSchema-instance" xsi:noNamespaceSchemaLocation="https://sanaregistry.org/r/ndmxml_unqualified/ndmxml-2.0.0-master-2.0.xsd">
<omm id="CCSDS_OMM_VERS" version="2.0">
<header><CREATION_DATE/><ORIGINATOR/></header><body><segment><metadata><OBJECT_NAME>IRIDIUM 7</OBJECT_NAME><OBJECT_ID>1997-020B</OBJECT_ID><CENTER_NAME>EARTH</CENTER_NAME><REF_FRAME>TEME</REF_FRAME><TIME_SYSTEM>UTC</TIME_SYSTEM><MEAN_ELEMENT_THEORY>SGP4</MEAN_ELEMENT_THEORY></metadata><data><meanElements><EPOCH>2025-02-10T21:38:51.337248</EPOCH><MEAN_MOTION>14.35755884</MEAN_MOTION><ECCENTRICITY>.0002098</ECCENTRICITY><INCLINATION>86.3934</INCLINATION><RA_OF_ASC_NODE>229.7799</RA_OF_ASC_NODE><ARG_OF_PERICENTER>98.1758</ARG_OF_PERICENTER><MEAN_ANOMALY>261.9677</MEAN_ANOMALY></meanElements><tleParameters><EPHEMERIS_TYPE>0</EPHEMERIS_TYPE><CLASSIFICATION_TYPE>U</CLASSIFICATION_TYPE><NORAD_CAT_ID>24793</NORAD_CAT_ID><ELEMENT_SET_NO>999</ELEMENT_SET_NO><REV_AT_EPOCH>45377</REV_AT_EPOCH><BSTAR>.25619E-3</BSTAR><MEAN_MOTION_DOT>.76E-5</MEAN_MOTION_DOT><MEAN_MOTION_DDOT>0</MEAN_MOTION_DDOT></tleParameters></data></segment></body></omm>
<omm id="CCSDS_OMM_VERS" version="2.0">
<header><CREATION_DATE/><ORIGINATOR/></header><body><segment><metadata><OBJECT_NAME>IRIDIUM 5</OBJECT_NAME><OBJECT_ID>1997-020D</OBJECT_ID><CENTER_NAME>EARTH</CENTER_NAME><REF_FRAME>TEME</REF_FRAME><TIME_SYSTEM>UTC</TIME_SYSTEM><MEAN_ELEMENT_THEORY>SGP4</MEAN_ELEMENT_THEORY></metadata><data><meanElements><EPOCH>2025-02-10T19:35:11.723424</EPOCH><MEAN_MOTION>14.92422241</MEAN_MOTION><ECCENTRICITY>.0111394</ECCENTRICITY><INCLINATION>86.3949</INCLINATION><RA_OF_ASC_NODE>141.9297</RA_OF_ASC_NODE><ARG_OF_PERICENTER>230.7936</ARG_OF_PERICENTER><MEAN_ANOMALY>128.3362</MEAN_ANOMALY></meanElements><tleParameters><EPHEMERIS_TYPE>0</EPHEMERIS_TYPE><CLASSIFICATION_TYPE>U</CLASSIFICATION_TYPE><NORAD_CAT_ID>24795</NORAD_CAT_ID><ELEMENT_SET_NO>999</ELEMENT_SET_NO><REV_AT_EPOCH>46660</REV_AT_EPOCH><BSTAR>.88016E-3</BSTAR><MEAN_MOTION_DOT>.10206E-3</MEAN_MOTION_DOT><MEAN_MOTION_DDOT>0</MEAN_MOTION_DDOT></tleParameters></data></segment></body></omm>
<omm id="CCSDS_OMM_VERS" version="2.0">
<header><CREATION_DATE/><ORIGINATOR/></header><body><segment><metadata><OBJECT_NAME>IRIDIUM 4</OBJECT_NAME><OBJECT_ID>1997-020E</OBJECT_ID><CENTER_NAME>EARTH</CENTER_NAME><REF_FRAME>TEME</REF_FRAME><TIME_SYSTEM>UTC</TIME_SYSTEM><MEAN_ELEMENT_THEORY>SGP4</MEAN_ELEMENT_THEORY></metadata><data><meanElements><EPOCH>2025-02-10T21:29:21.227712</EPOCH><MEAN_MOTION>14.36665861</MEAN_MOTION><ECCENTRICITY>.0001935</ECCENTRICITY><INCLINATION>86.3935</INCLINATION><RA_OF_ASC_NODE>226.7424</RA_OF_ASC_NODE><ARG_OF_PERICENTER>93.3762</ARG_OF_PERICENTER><MEAN_ANOMALY>266.7657</MEAN_ANOMALY></meanElements><tleParameters><EPHEMERIS_TYPE>0</EPHEMERIS_TYPE><CLASSIFICATION_TYPE>U</CLASSIFICATION_TYPE><NORAD_CAT_ID>24796</NORAD_CAT_ID><ELEMENT_SET_NO>999</ELEMENT_SET_NO><REV_AT_EPOCH>45433</REV_AT_EPOCH><BSTAR>.23708E-3</BSTAR><MEAN_MOTION_DOT>.717E-5</MEAN_MOTION_DOT><MEAN_MOTION_DDOT>0</MEAN_MOTION_DDOT></tleParameters></data></segment></body></omm>
<omm id="CCSDS_OMM_VERS" version="2.0">
<header><CREATION_DATE/><ORIGINATOR/></header><body><segment><metadata><OBJECT_NAME>IRIDIUM 911</OBJECT_NAME><OBJECT_ID>1997-030G</OBJECT_ID><CENTER_NAME>EARTH</CENTER_NAME><REF_FRAME>TEME</REF_FRAME><TIME_SYSTEM>UTC</TIME_SYSTEM><MEAN_ELEMENT_THEORY>SGP4</MEAN_ELEMENT_THEORY></metadata><data><meanElements><EPOCH>2025-02-10T23:00:17.623584</EPOCH><MEAN_MOTION>14.47357235</MEAN_MOTION><ECCENTRICITY>.0014998</ECCENTRICITY><INCLINATION>86.4413</INCLINATION><RA_OF_ASC_NODE>257.2056</RA_OF_ASC_NODE><ARG_OF_PERICENTER>151.4322</ARG_OF_PERICENTER><MEAN_ANOMALY>208.7706</MEAN_ANOMALY></meanElements><tleParameters><EPHEMERIS_TYPE>0</EPHEMERIS_TYPE><CLASSIFICATION_TYPE>U</CLASSIFICATION_TYPE><NORAD_CAT_ID>24842</NORAD_CAT_ID><ELEMENT_SET_NO>999</ELEMENT_SET_NO><REV_AT_EPOCH>45682</REV_AT_EPOCH><BSTAR>.26916E-3</BSTAR><MEAN_MOTION_DOT>.1007E-4</MEAN_MOTION_DOT><MEAN_MOTION_DDOT>0</MEAN_MOTION_DDOT></tleParameters></data></segment></body></omm>
<omm id="CCSDS_OMM_VERS" version="2.0">
<header><CREATION_DATE/><ORIGINATOR/></header><body><segment><metadata><OBJECT_NAME>IRIDIUM 17</OBJECT_NAME><OBJECT_ID>1997-034B</OBJECT_ID><CENTER_NAME>EARTH</CENTER_NAME><REF_FRAME>TEME</REF_FRAME><TIME_SYSTEM>UTC</TIME_SYSTEM><MEAN_ELEMENT_THEORY>SGP4</MEAN_ELEMENT_THEORY></metadata><data><meanElements><EPOCH>2025-02-10T17:19:22.351872</EPOCH><MEAN_MOTION>14.37626109</MEAN_MOTION><ECCENTRICITY>.0003686</ECCENTRICITY><INCLINATION>86.3941</INCLINATION><RA_OF_ASC_NODE>287.9662</RA_OF_ASC_NODE><ARG_OF_PERICENTER>78.1019</ARG_OF_PERICENTER><MEAN_ANOMALY>282.0591</MEAN_ANOMALY></meanElements><tleParameters><EPHEMERIS_TYPE>0</EPHEMERIS_TYPE><CLASSIFICATION_TYPE>U</CLASSIFICATION_TYPE><NORAD_CAT_ID>24870</NORAD_CAT_ID><ELEMENT_SET_NO>999</ELEMENT_SET_NO><REV_AT_EPOCH>44541</REV_AT_EPOCH><BSTAR>.24528E-3</BSTAR><MEAN_MOTION_DOT>.755E-5</MEAN_MOTION_DOT><MEAN_MOTION_DDOT>0</MEAN_MOTION_DDOT></tleParameters></data></segment></body></omm>
<omm id="CCSDS_OMM_VERS" version="2.0">
<header><CREATION_DATE/><ORIGINATOR/></header><body><segment><metadata><OBJECT_NAME>IRIDIUM 920</OBJECT_NAME><OBJECT_ID>1997-034C</OBJECT_ID><CENTER_NAME>EARTH</CENTER_NAME><REF_FRAME>TEME</REF_FRAME><TIME_SYSTEM>UTC</TIME_SYSTEM><MEAN_ELEMENT_THEORY>SGP4</MEAN_ELEMENT_THEORY></metadata><data><meanElements><EPOCH>2025-02-10T16:08:58.245504</EPOCH><MEAN_MOTION>14.41328112</MEAN_MOTION><ECCENTRICITY>.001289</ECCENTRICITY><INCLINATION>86.3933</INCLINATION><RA_OF_ASC_NODE>267.4862</RA_OF_ASC_NODE><ARG_OF_PERICENTER>132.3436</ARG_OF_PERICENTER><MEAN_ANOMALY>227.8858</MEAN_ANOMALY></meanElements><tleParameters><EPHEMERIS_TYPE>0</EPHEMERIS_TYPE><CLASSIFICATION_TYPE>U</CLASSIFICATION_TYPE><NORAD_CAT_ID>24871</NORAD_CAT_ID><ELEMENT_SET_NO>999</ELEMENT_SET_NO><REV_AT_EPOCH>44835</REV_AT_EPOCH><BSTAR>.22429E-3</BSTAR><MEAN_MOTION_DOT>.746E-5</MEAN_MOTION_DOT><MEAN_MOTION_DDOT>0</MEAN_MOTION_DDOT></tleParameters></data></segment></body></omm>

</ndm>
