IRIDIUM 7               
1 24793U 97020B   25041.90198307  .00000760  00000+0  25619-3 0  9990
2 24793  86.3934 229.7799 0002098  98.1758 261.9677 14.35755884453776
IRIDIUM 5               
1 24795U 97020D   25041.81610791  .00010206  00000+0  88016-3 0  9994
2 24795  86.3949 141.9297 0111394 230.7936 128.3362 14.92422241466608
IRIDIUM 4               
1 24796U 97020E   25041.89538458  .00000717  00000+0  23708-3 0  9995
2 24796  86.3935 226.7424 0001935  93.3762 266.7657 14.36665861454333
IRIDIUM 911             
1 24842U 97030G   25041.95853731  .00001007  00000+0  26916-3 0  9996
2 24842  86.4413 257.2056 0014998 151.4322 208.7706 14.47357235456820
IRIDIUM 17              
1 24870U 97034B   25041.72178648  .00000755  00000+0  24528-3 0  9999
2 24870  86.3941 287.9662 0003686  78.1019 282.0591 14.37626109445417
IRIDIUM 920             
1 24871U 97034C   25041.67289636  .00000746  00000+0  22429-3 0  9992
2 24871  86.3933 267.4862 0012890 132.3436 227.8858 14.41328112448354
